$$SOE
2460154.500000000, A.D. 2023-Jul-29 00:00:00.0000, -2.834589716656460E+08, 1.899947562283085E+08, -2.365152779800744E+07,
2460161.500000000, A.D. 2023-Aug-05 00:00:00.0000, -2.915207095405198E+08, 1.809416890848535E+08, -2.410431356479388E+07,
2460168.500000000, A.D. 2023-Aug-12 00:00:00.0000, -2.992347542405655E+08, 1.716727307823229E+08, -2.452834416834124E+07,
2460175.500000000, A.D. 2023-Aug-19 00:00:00.0000, -3.065977490003600E+08, 1.622022890387401E+08, -2.492359256734303E+07,
2460182.500000000, A.D. 2023-Aug-26 00:00:00.0000, -3.136069209205573E+08, 1.525445770441614E+08, -2.529007158819263E+07,
2460189.500000000, A.D. 2023-Sep-02 00:00:00.0000, -3.202600514538750E+08, 1.427135952735264E+08, -2.562783148316054E+07,
2460196.500000000, A.D. 2023-Sep-09 00:00:00.0000, -3.265554473004087E+08, 1.327231157410155E+08, -2.593695756964625E+07,
2460203.500000000, A.D. 2023-Sep-16 00:00:00.0000, -3.324919116888499E+08, 1.225866684603264E+08, -2.621756797853299E+07,
2460210.500000000, A.D. 2023-Sep-23 00:00:00.0000, -3.380687157482538E+08, 1.123175302210539E+08, -2.646981153243076E+07,
2460217.500000000, A.D. 2023-Sep-30 00:00:00.0000, -3.432855704093773E+08, 1.019287166976535E+08, -2.669386562979123E+07,
2460224.500000000, A.D. 2023-Oct-07 00:00:00.0000, -3.481426012717317E+08, 9.143297717834383E+07, -2.688993396696746E+07,
2460231.500000000, A.D. 2023-Oct-14 00:00:00.0000, -3.526403254634808E+08, 8.084278843998708E+07, -2.705824446732118E+07,
2460238.500000000, A.D. 2023-Oct-21 00:00:00.0000, -3.567796273102781E+08, 7.017034921907309E+07, -2.719904758292179E+07,
2460245.500000000, A.D. 2023-Oct-28 00:00:00.0000, -3.605617342649077E+08, 5.942757738807859E+07, -2.731261465199031E+07,
2460252.500000000, A.D. 2023-Nov-04 00:00:00.0000, -3.639881943705310E+08, 4.862610892289948E+07, -2.739923625990712E+07,
2460259.500000000, A.D. 2023-Nov-11 00:00:00.0000, -3.670608550943099E+08, 3.777729793016975E+07, -2.745922066855943E+07,
2460266.500000000, A.D. 2023-Nov-18 00:00:00.0000, -3.697818433140615E+08, 2.689221754804379E+07, -2.749289233757382E+07,
2460273.500000000, A.D. 2023-Nov-25 00:00:00.0000, -3.721535463783931E+08, 1.598166162802502E+07, -2.750059053973101E+07,
2460280.500000000, A.D. 2023-Dec-02 00:00:00.0000, -3.741785941994417E+08, 5.056147079465967E+06, -2.748266807137618E+07,
2460287.500000000, A.D. 2023-Dec-09 00:00:00.0000, -3.758598422829305E+08, -5.874083280910877E+06, -2.743949006704608E+07,
2460294.500000000, A.D. 2023-Dec-16 00:00:00.0000, -3.772003553861499E+08, -1.679905745192232E+07, -2.737143294079360E+07,
2460301.500000000, A.D. 2023-Dec-23 00:00:00.0000, -3.782033914288168E+08, -2.770906993715858E+07, -2.727888342676085E+07,
2460308.500000000, A.D. 2023-Dec-30 00:00:00.0000, -3.788723869652964E+08, -3.859467542517361E+07, -2.716223750655846E+07,
2460315.500000000, A.D. 2024-Jan-06 00:00:00.0000, -3.792109459560989E+08, -4.944668288993123E+07, -2.702189924990382E+07,
2460322.500000000, A.D. 2024-Jan-13 00:00:00.0000, -3.792228286309902E+08, -6.025615198159416E+07, -2.685828000345175E+07,
2460329.500000000, A.D. 2024-Jan-20 00:00:00.0000, -3.789119391826311E+08, -7.101438868080148E+07, -2.667179778398361E+07,
2460336.500000000, A.D. 2024-Jan-27 00:00:00.0000, -3.782823142820256E+08, -8.171293961925118E+07, -2.646287663327387E+07,
2460343.500000000, A.D. 2024-Feb-03 00:00:00.0000, -3.773381128126460E+08, -9.234358606583914E+07, -2.623194597117523E+07,
2460350.500000000, A.D. 2024-Feb-10 00:00:00.0000, -3.760836065178429E+08, -1.028983379115579E+08, -2.597943999483865E+07,
2460357.500000000, A.D. 2024-Feb-17 00:00:00.0000, -3.745231713925949E+08, -1.133694276796143E+08, -2.570579713387762E+07,
2460364.500000000, A.D. 2024-Feb-24 00:00:00.0000, -3.726612797503260E+08, -1.237493045762146E+08, -2.541145956051199E+07,
2460371.500000000, A.D. 2024-Mar-02 00:00:00.0000, -3.705024929012368E+08, -1.340306286423779E+08, -2.509687275683960E+07,
2460378.500000000, A.D. 2024-Mar-09 00:00:00.0000, -3.680514542700710E+08, -1.442062650950676E+08, -2.476248515409211E+07,
2460385.500000000, A.D. 2024-Mar-16 00:00:00.0000, -3.653128825261412E+08, -1.542692786829934E+08, -2.440874786121947E+07,
2460392.500000000, A.D. 2024-Mar-23 00:00:00.0000, -3.622915647984168E+08, -1.642129269675957E+08, -2.403611438001087E+07,
2460399.500000000, A.D. 2024-Mar-30 00:00:00.0000, -3.589923521868670E+08, -1.740306525732213E+08, -2.364504010091470E+07,
2460406.500000000, A.D. 2024-Apr-06 00:00:00.0000, -3.554201572868262E+08, -1.837160777900333E+08, -2.323598187624449E+07,
2460413.500000000, A.D. 2024-Apr-13 00:00:00.0000, -3.515799501509976E+08, -1.932630007060976E+08, -2.280939792619389E+07,
2460420.500000000, A.D. 2024-Apr-20 00:00:00.0000, -3.474767536157268E+08, -2.026653902005301E+08, -2.236574776906754E+07,
2460427.500000000, A.D. 2024-Apr-27 00:00:00.0000, -3.431156394809994E+08, -2.119173803663993E+08, -2.190549207980953E+07,
2460434.500000000, A.D. 2024-May-04 00:00:00.0000, -3.385017254300321E+08, -2.210132650754404E+08, -2.142909254031245E+07,
2460441.500000000, A.D. 2024-May-11 00:00:00.0000, -3.336401724276885E+08, -2.299474927956171E+08, -2.093701171021956E+07,
2460448.500000000, A.D. 2024-May-18 00:00:00.0000, -3.285361824966033E+08, -2.387146616477574E+08, -2.042971292266065E+07,
2460455.500000000, A.D. 2024-May-25 00:00:00.0000, -3.231949968289130E+08, -2.473095147142429E+08, -1.990766020639940E+07,
2460462.500000000, A.D. 2024-Jun-01 00:00:00.0000, -3.176218941573642E+08, -2.557269356614155E+08, -1.937131824316216E+07,
2460469.500000000, A.D. 2024-Jun-08 00:00:00.0000, -3.118221891238633E+08, -2.639619447015970E+08, -1.882115238318904E+07,
2460476.500000000, A.D. 2024-Jun-15 00:00:00.0000, -3.058012302308878E+08, -2.720096943513955E+08, -1.825762870962553E+07,
2460483.500000000, A.D. 2024-Jun-22 00:00:00.0000, -2.995643983658537E+08, -2.798654638118370E+08, -1.768121396199901E+07,
2460490.500000000, A.D. 2024-Jun-29 00:00:00.0000, -2.931171080048337E+08, -2.875246537919401E+08, -1.709237527162892E+07,
2460497.500000000, A.D. 2024-Jul-06 00:00:00.0000, -2.864648084373683E+08, -2.949827842492462E+08, -1.649158015252033E+07,
2460504.500000000, A.D. 2024-Jul-13 00:00:00.0000, -2.796129830522904E+08, -3.022354922253036E+08, -1.587929669475201E+07,
2460511.500000000, A.D. 2024-Jul-20 00:00:00.0000, -2.725671486592991E+08, -3.092785286274472E+08, -1.525599368317874E+07,
2460518.500000000, A.D. 2024-Jul-27 00:00:00.0000, -2.653328554906005E+08, -3.161077549156658E+08, -1.462214065863308E+07,
2460525.500000000, A.D. 2024-Aug-03 00:00:00.0000, -2.579156875981256E+08, -3.227191400697106E+08, -1.397820797660181E+07,
2460532.500000000, A.D. 2024-Aug-10 00:00:00.0000, -2.503212634703174E+08, -3.291087578424637E+08, -1.332466687859355E+07,
2460539.500000000, A.D. 2024-Aug-17 00:00:00.0000, -2.425552368128272E+08, -3.352727842799316E+08, -1.266198957851265E+07,
2460546.500000000, A.D. 2024-Aug-24 00:00:00.0000, -2.346232974583034E+08, -3.412074955317477E+08, -1.199064936810185E+07,
2460553.500000000, A.D. 2024-Aug-31 00:00:00.0000, -2.265311722833703E+08, -3.469092660145851E+08, -1.131112075668474E+07,
2460560.500000000, A.D. 2024-Sep-07 00:00:00.0000, -2.182846257614793E+08, -3.523745668021377E+08, -1.062387966791417E+07,
2460567.500000000, A.D. 2024-Sep-14 00:00:00.0000, -2.098894600604525E+08, -3.575999632443708E+08, -9.929403619325593E+06,
2460574.500000000, A.D. 2024-Sep-21 00:00:00.0000, -2.013515167060241E+08, -3.625821114004631E+08, -9.228171664216891E+06,
2460581.500000000, A.D. 2024-Sep-28 00:00:00.0000, -1.926766802891386E+08, -3.673177565112752E+08, -8.520664314544320E+06,
2460588.500000000, A.D. 2024-Oct-05 00:00:00.0000, -1.838708805380806E+08, -3.718037335124258E+08, -7.807363781332284E+06,
2460595.500000000, A.D. 2024-Oct-12 00:00:00.0000, -1.749400931096454E+08, -3.760369666136199E+08, -7.088754256073773E+06,
2460602.500000000, A.D. 2024-Oct-19 00:00:00.0000, -1.658903408462470E+08, -3.800144682206923E+08, -6.365322094562858E+06,
2460609.500000000, A.D. 2024-Oct-26 00:00:00.0000, -1.567276955285031E+08, -3.837333380059669E+08, -5.637555965346217E+06,
2460616.500000000, A.D. 2024-Nov-02 00:00:00.0000, -1.474582798626971E+08, -3.871907622779582E+08, -4.905946998038262E+06,
2460623.500000000, A.D. 2024-Nov-09 00:00:00.0000, -1.380882696020374E+08, -3.903840136321006E+08, -4.170988938172519E+06,
2460630.500000000, A.D. 2024-Nov-16 00:00:00.0000, -1.286238957707799E+08, -3.933104508855412E+08, -3.433178310441464E+06,
2460637.500000000, A.D. 2024-Nov-23 00:00:00.0000, -1.190714469394086E+08, -3.959675193499763E+08, -2.693014598126829E+06,
2460644.500000000, A.D. 2024-Nov-30 00:00:00.0000, -1.094372713377843E+08, -3.983527514895825E+08, -1.951000460674614E+06,
2460651.500000000, A.D. 2024-Dec-07 00:00:00.0000, -9.972777838191375E+07, -4.004637675481519E+08, -1.207641992863238E+06,
2460658.500000000, A.D. 2024-Dec-14 00:00:00.0000, -8.994944029789665E+07, -4.022982749262459E+08, -4.634488617208600E+05,
2460665.500000000, A.D. 2024-Dec-21 00:00:00.0000, -8.010879615580617E+07, -4.038540675535867E+08, 2.810657906591892E+05,
2460672.500000000, A.D. 2024-Dec-28 00:00:00.0000, -7.021245633419190E+07, -4.051290282297800E+08, 1.025385255482286E+06,
2460679.500000000, A.D. 2025-Jan-04 00:00:00.0000, -6.026710481153593E+07, -4.061211315656843E+08, 1.768988933414102E+06,
2460686.500000000, A.D. 2025-Jan-11 00:00:00.0000, -5.027950110013284E+07, -4.068284458744592E+08, 2.511352082124621E+06,
2460693.500000000, A.D. 2025-Jan-18 00:00:00.0000, -4.025648273311015E+07, -4.072491349393228E+08, 3.251945645208091E+06,
2460700.500000000, A.D. 2025-Jan-25 00:00:00.0000, -3.020496805421225E+07, -4.073814601407582E+08, 3.990236102344900E+06,
2460707.500000000, A.D. 2025-Feb-01 00:00:00.0000, -2.013195911314924E+07, -4.072237829815927E+08, 4.725685321805179E+06,
2460714.500000000, A.D. 2025-Feb-08 00:00:00.0000, -1.004454459916933E+07, -4.067745679990718E+08, 5.457750412402123E+06,
$$EOE